SOYUZ-MS 28             
1 66664U 25275A   25358.21340367  .00012440  00000+0  22738-3 0  9993
2 66664  51.6319  85.6574 0003170 294.2840  65.7818 15.49773492  1287
1998-067XS              
1 66906U 98067XS  25357.55486240  .00028470  00000+0  48513-3 0  9997
2 66906  51.6316  88.7613 0002815 256.8779 103.1896 15.51136039  3290
1998-067XT              
1 66907U 98067XT  25357.47904909  .00065231  00000+0  10349-2 0  9997
2 66907  51.6313  89.0045 0003882 291.7662  68.2915 15.52745506  3283
1998-067XU              
1 66908U 98067XU  25357.47806396  .00064549  00000+0  10207-2 0  9993
2 66908  51.6312  88.9976 0003920 289.9814  70.0754 15.52842233  3282
SILVERSAT               
1 66909U 98067XV  25358.24882677  .00078073  00000+0  12166-2 0  9999
2 66909  51.6308  85.1451 0003859 300.0708  59.9900 15.53164124  3403
1998-067XW              
1 66910U 98067XW  25357.47495928  .00062264  00000+0  97986-3 0  9993
2 66910  51.6309  88.9767 0003988 265.4983  94.5551 15.52989430  3286
1998-067XX              
1 66911U 98067XX  25358.24358600  .00078877  00000+0  12105-2 0  9991
2 66911  51.6309  85.1103 0003633 279.0791  80.9788 15.53583862  3398
1998-067XY              
1 66912U 98067XY  25357.28998680  .00051669  00000+0  84098-3 0  9994
2 66912  51.6317  89.9922 0003879 281.5198  78.5356 15.52133019  3242
