CCSDS_OMM_VERS = 2.0
CREATION_DATE  = 
ORIGINATOR     = 

OBJECT_NAME    = SOYUZ-MS 28
OBJECT_ID      = 2025-275A
CENTER_NAME    = EARTH
REF_FRAME      = TEME
TIME_SYSTEM    = UTC
MEAN_ELEMENT_THEORY = SGP/SGP4

EPOCH          = 2025-12-24T05:07:18.077088
MEAN_MOTION    = 15.49773492
ECCENTRICITY   = .00031703
INCLINATION    = 51.6319
RA_OF_ASC_NODE = 85.6574
ARG_OF_PERICENTER = 294.2840
MEAN_ANOMALY   = 65.7818

EPHEMERIS_TYPE = 0
CLASSIFICATION_TYPE = U
NORAD_CAT_ID   = 66664
ELEMENT_SET_NO = 999
REV_AT_EPOCH   = 128
BSTAR          = .22737508E-3
MEAN_MOTION_DOT = .1244E-3
MEAN_MOTION_DDOT = 0

CCSDS_OMM_VERS = 2.0
CREATION_DATE  = 
ORIGINATOR     = 

OBJECT_NAME    = 1998-067XS
OBJECT_ID      = 1998-067XS
CENTER_NAME    = EARTH
REF_FRAME      = TEME
TIME_SYSTEM    = UTC
MEAN_ELEMENT_THEORY = SGP/SGP4

EPOCH          = 2025-12-23T13:19:00.111360
MEAN_MOTION    = 15.51136039
ECCENTRICITY   = .00028154
INCLINATION    = 51.6316
RA_OF_ASC_NODE = 88.7613
ARG_OF_PERICENTER = 256.8779
MEAN_ANOMALY   = 103.1896

EPHEMERIS_TYPE = 0
CLASSIFICATION_TYPE = U
NORAD_CAT_ID   = 66906
ELEMENT_SET_NO = 999
REV_AT_EPOCH   = 329
BSTAR          = .48512679E-3
MEAN_MOTION_DOT = .2847E-3
MEAN_MOTION_DDOT = 0

CCSDS_OMM_VERS = 2.0
CREATION_DATE  = 
ORIGINATOR     = 

OBJECT_NAME    = 1998-067XT
OBJECT_ID      = 1998-067XT
CENTER_NAME    = EARTH
REF_FRAME      = TEME
TIME_SYSTEM    = UTC
MEAN_ELEMENT_THEORY = SGP/SGP4

EPOCH          = 2025-12-23T11:29:49.841376
MEAN_MOTION    = 15.52745506
ECCENTRICITY   = .0003882
INCLINATION    = 51.6313
RA_OF_ASC_NODE = 89.0045
ARG_OF_PERICENTER = 291.7662
MEAN_ANOMALY   = 68.2915

EPHEMERIS_TYPE = 0
CLASSIFICATION_TYPE = U
NORAD_CAT_ID   = 66907
ELEMENT_SET_NO = 999
REV_AT_EPOCH   = 328
BSTAR          = .10348952E-2
MEAN_MOTION_DOT = .65231E-3
MEAN_MOTION_DDOT = 0

CCSDS_OMM_VERS = 2.0
CREATION_DATE  = 
ORIGINATOR     = 

OBJECT_NAME    = 1998-067XU
OBJECT_ID      = 1998-067XU
CENTER_NAME    = EARTH
REF_FRAME      = TEME
TIME_SYSTEM    = UTC
MEAN_ELEMENT_THEORY = SGP/SGP4

EPOCH          = 2025-12-23T11:28:24.726144
MEAN_MOTION    = 15.52842233
ECCENTRICITY   = .00039209
INCLINATION    = 51.6312
RA_OF_ASC_NODE = 88.9976
ARG_OF_PERICENTER = 289.9814
MEAN_ANOMALY   = 70.0754

EPHEMERIS_TYPE = 0
CLASSIFICATION_TYPE = U
NORAD_CAT_ID   = 66908
ELEMENT_SET_NO = 999
REV_AT_EPOCH   = 328
BSTAR          = .10206619E-2
MEAN_MOTION_DOT = .64549E-3
MEAN_MOTION_DDOT = 0

CCSDS_OMM_VERS = 2.0
CREATION_DATE  = 
ORIGINATOR     = 

OBJECT_NAME    = SILVERSAT
OBJECT_ID      = 1998-067XV
CENTER_NAME    = EARTH
REF_FRAME      = TEME
TIME_SYSTEM    = UTC
MEAN_ELEMENT_THEORY = SGP/SGP4

EPOCH          = 2025-12-24T05:58:18.632928
MEAN_MOTION    = 15.53164124
ECCENTRICITY   = .00038593
INCLINATION    = 51.6308
RA_OF_ASC_NODE = 85.1451
ARG_OF_PERICENTER = 300.0708
MEAN_ANOMALY   = 59.9900

EPHEMERIS_TYPE = 0
CLASSIFICATION_TYPE = U
NORAD_CAT_ID   = 66909
ELEMENT_SET_NO = 999
REV_AT_EPOCH   = 340
BSTAR          = .12166372E-2
MEAN_MOTION_DOT = .78073E-3
MEAN_MOTION_DDOT = 0

CCSDS_OMM_VERS = 2.0
CREATION_DATE  = 
ORIGINATOR     = 

OBJECT_NAME    = 1998-067XW
OBJECT_ID      = 1998-067XW
CENTER_NAME    = EARTH
REF_FRAME      = TEME
TIME_SYSTEM    = UTC
MEAN_ELEMENT_THEORY = SGP/SGP4

EPOCH          = 2025-12-23T11:23:56.481792
MEAN_MOTION    = 15.52989430
ECCENTRICITY   = .00039882
INCLINATION    = 51.6309
RA_OF_ASC_NODE = 88.9767
ARG_OF_PERICENTER = 265.4983
MEAN_ANOMALY   = 94.5551

EPHEMERIS_TYPE = 0
CLASSIFICATION_TYPE = U
NORAD_CAT_ID   = 66910
ELEMENT_SET_NO = 999
REV_AT_EPOCH   = 328
BSTAR          = .97986031E-3
MEAN_MOTION_DOT = .62264E-3
MEAN_MOTION_DDOT = 0

CCSDS_OMM_VERS = 2.0
CREATION_DATE  = 
ORIGINATOR     = 

OBJECT_NAME    = 1998-067XX
OBJECT_ID      = 1998-067XX
CENTER_NAME    = EARTH
REF_FRAME      = TEME
TIME_SYSTEM    = UTC
MEAN_ELEMENT_THEORY = SGP/SGP4

EPOCH          = 2025-12-24T05:50:45.830400
MEAN_MOTION    = 15.53583862
ECCENTRICITY   = .00036335
INCLINATION    = 51.6309
RA_OF_ASC_NODE = 85.1103
ARG_OF_PERICENTER = 279.0791
MEAN_ANOMALY   = 80.9788

EPHEMERIS_TYPE = 0
CLASSIFICATION_TYPE = U
NORAD_CAT_ID   = 66911
ELEMENT_SET_NO = 999
REV_AT_EPOCH   = 339
BSTAR          = .12104757E-2
MEAN_MOTION_DOT = .78877E-3
MEAN_MOTION_DDOT = 0

CCSDS_OMM_VERS = 2.0
CREATION_DATE  = 
ORIGINATOR     = 

OBJECT_NAME    = 1998-067XY
OBJECT_ID      = 1998-067XY
CENTER_NAME    = EARTH
REF_FRAME      = TEME
TIME_SYSTEM    = UTC
MEAN_ELEMENT_THEORY = SGP/SGP4

EPOCH          = 2025-12-23T06:57:34.859520
MEAN_MOTION    = 15.52133019
ECCENTRICITY   = .00038791
INCLINATION    = 51.6317
RA_OF_ASC_NODE = 89.9922
ARG_OF_PERICENTER = 281.5198
MEAN_ANOMALY   = 78.5356

EPHEMERIS_TYPE = 0
CLASSIFICATION_TYPE = U
NORAD_CAT_ID   = 66912
ELEMENT_SET_NO = 999
REV_AT_EPOCH   = 324
BSTAR          = .84098106E-3
MEAN_MOTION_DOT = .51669E-3
MEAN_MOTION_DDOT = 0

